QIANFAN-89              
1 63175U 25046S   25279.55188918  .00000186  00000+0  26937-3 0  9993
2 63175  88.9811 326.9890 0014840 325.5432  34.4755 13.50967110 38335
QIANFAN-90              
1 63176U 25046T   25279.50657112  .00000186  00000+0  26907-3 0  9993
2 63176  88.9810 326.9660 0011754 325.0905  34.9474 13.50969348 38340
